{
  "norad_id": 46725,
  "name": "STARLINK-1828",
  "history": [
    {
      "epoch": "2026-03-28T21:07:06.464352Z",
      "apogee_km": 399.05366860001504,
      "perigee_km": 392.5073547167485,
      "latitude_deg": -1.8859967577701026e-05,
      "longitude_deg": 0.5286107471188518,
      "height_km": 394.197537164958,
      "semi_major_axis_km": 6773.917511658382,
      "eccentricity": 0.0004832,
      "inclination_deg": 53.0531,
      "raan_deg": 143.5996,
      "arg_perigee_deg": 40.8163,
      "mean_anomaly_deg": 319.3209,
      "mean_motion_rev_day": 15.57194662
    }
  ]
}